IRIDIUM 36              
1 24967U 97056C   24176.50545003  .00000584  00000+0  19100-3 0  9997
2 24967  86.3968 323.2201 0002317  92.0248 268.1215 14.36855890400841
IRIDIUM 39              
1 25042U 97069D   24176.61036800  .00000775  00000+0  20259-3 0  9997
2 25042  86.3920   4.3740 0020227  63.0600 297.2666 14.48016684397198
IRIDIUM 38              
1 25043U 97069E   24176.64987069  .00000494  00000+0  15922-3 0  9992
2 25043  86.3961  23.5275 0002418 133.1500 226.9900 14.37305950394844
IRIDIUM 42              
1 25077U 97077A   24176.64184796  .00000457  00000+0  15171-3 0  9999
2 25077  86.3965  29.2599 0001881 103.5600 256.5806 14.35602113389883
IRIDIUM 44              
1 25078U 97077B   24176.58248310  .00000532  00000+0  16468-3 0  9990
2 25078  86.3959  12.1732 0003822 104.1337 256.0286 14.39443888392278
IRIDIUM 45              
1 25104U 97082A   24176.60483584  .00009961  00000+0  55267-3 0  9998
2 25104  86.3749 218.7663 0157599 211.4947 147.6782 15.03518051398226
IRIDIUM 24              
1 25105U 97082B   24176.59216271  .00000602  00000+0  18032-3 0  9996
2 25105  86.3919 231.7364 0011890 168.0853 192.0630 14.41230979391696
IRIDIUM 51              
1 25262U 98018A   24176.66048388  .00016570  00000+0  75124-3 0  9996
2 25262  86.3956 228.5385 0145381 154.5256 206.3244 15.11637610392768
